*******************************************************************************
Ephemeris / WWW_USER Mon Mar 24 08:01:11 2025 Pasadena, USA      / Horizons    
*******************************************************************************
Target body name: (2018 UM1)                      {source: JPL#32}
Center body name: Earth (399)                     {source: DE441}
Center-site name: Mauna Kea
*******************************************************************************
Start time      : A.D. 2018-Nov-23 03:51:00.0000 UT      
Stop  time      : A.D. 2018-Nov-23 16:25:00.0000 UT      
Step-size       : 1 minutes
*******************************************************************************
Target pole/equ : undefined
Target radii    : undefined                                                    
Center geodetic : 204.5278, 19.8260847, 4.21024   {E-lon(deg),Lat(deg),Alt(km)}
Center cylindric: 204.5278, 6006.35451, 2151.0229 {E-lon(deg),Dxy(km),Dz(km)}
Center pole/equ : ITRF93                          {East-longitude positive}
Center radii    : 6378.137, 6378.137, 6356.752 km {Equator_a, b, pole_c}       
Target primary  : Sun
Vis. interferer : MOON (R_eq= 1737.400) km        {source: DE441}
Rel. light bend : Sun                             {source: DE441}
Rel. lght bnd GM: 1.3271E+11 km^3/s^2                                          
Small-body perts: Yes                             {source: SB441-N16}
Atmos refraction: NO (AIRLESS)
RA format       : HMS
Time format     : CAL 
Calendar mode   : Mixed Julian/Gregorian
RTS-only print  : NO       
EOP file        : eop.250321.p250617                                           
EOP coverage    : DATA-BASED 1962-JAN-20 TO 2025-MAR-21. PREDICTS-> 2025-JUN-16
Units conversion: 1 au= 149597870.700 km, c= 299792.458 km/s, 1 day= 86400.0 s 
Table cut-offs 1: Elevation (-90.0deg=NO ),Airmass (>38.000=NO), Daylight (YES)
Table cut-offs 2: Solar elongation (  0.0,180.0=NO ),Local Hour Angle( 0.0=NO )
Table cut-offs 3: RA/DEC angular rate (     0.0=NO )                           
*******************************************************************************
Initial IAU76/J2000 heliocentric ecliptic osculating elements (au, days, deg.):
  EPOCH=  2458316.5 ! 2018-Jul-17.00 (TDB)         Residual RMS= .13282        
   EC= .1732206266096905   QR= .9442469573310488   TP= 2458347.0882341689      
   OM= 261.2771090241423   W=  53.36399135060417   IN= 1.987806152492243       
  Equivalent ICRF heliocentric cartesian coordinates (au, au/d):
   X= 1.631856825953344E-01  Y=-8.815145891163165E-01  Z=-3.705958742828900E-01
  VX= 1.811434055353769E-02 VY= 4.114587132606022E-03 VZ= 2.434006136501484E-03
Asteroid physical parameters (km, seconds, rotational period in hours):        
   GM= n.a.                RAD= n.a.               ROTPER= n.a.                
   H= 23.64                G= .150                 B-V= n.a.                   
                           ALBEDO= n.a.            STYP= n.a.                  
*******************************************************************************
 Date__(UT)__HR:MN     R.A._________(ICRF)_________DEC
******************************************************
$$SOE
 2018-Nov-23 14:06  m  01 05 21.072267 +12 30 03.66096
 2018-Nov-23 14:07  m  01 05 21.167705 +12 30 03.48468
 2018-Nov-23 14:08  m  01 05 21.263196 +12 30 03.30845
 2018-Nov-23 14:09  m  01 05 21.358739 +12 30 03.13228
 2018-Nov-23 14:10  m  01 05 21.454335 +12 30 02.95616
 2018-Nov-23 14:11  m  01 05 21.549984 +12 30 02.78009
 2018-Nov-23 14:12  m  01 05 21.645686 +12 30 02.60408
 2018-Nov-23 14:13  m  01 05 21.741439 +12 30 02.42812
 2018-Nov-23 14:14  m  01 05 21.837246 +12 30 02.25222
 2018-Nov-23 14:15  m  01 05 21.933104 +12 30 02.07638
 2018-Nov-23 14:16  m  01 05 22.029015 +12 30 01.90060
 2018-Nov-23 14:17  m  01 05 22.124978 +12 30 01.72487
 2018-Nov-23 14:18  m  01 05 22.220993 +12 30 01.54921
 2018-Nov-23 14:19  m  01 05 22.317061 +12 30 01.37360
 2018-Nov-23 14:20  m  01 05 22.413180 +12 30 01.19806
 2018-Nov-23 14:21  m  01 05 22.509352 +12 30 01.02258
 2018-Nov-23 14:22  m  01 05 22.605575 +12 30 00.84716
 2018-Nov-23 14:23  m  01 05 22.701850 +12 30 00.67180
 2018-Nov-23 14:24  m  01 05 22.798177 +12 30 00.49651
 2018-Nov-23 14:25  m  01 05 22.894556 +12 30 00.32128
 2018-Nov-23 14:26  m  01 05 22.990986 +12 30 00.14612
 2018-Nov-23 14:27  m  01 05 23.087468 +12 29 59.97102
 2018-Nov-23 14:28  m  01 05 23.184001 +12 29 59.79599
 2018-Nov-23 14:29  m  01 05 23.280585 +12 29 59.62103
 2018-Nov-23 14:30  m  01 05 23.377221 +12 29 59.44613
 2018-Nov-23 14:31  m  01 05 23.473909 +12 29 59.27131
 2018-Nov-23 14:32  m  01 05 23.570647 +12 29 59.09655
 2018-Nov-23 14:33  m  01 05 23.667437 +12 29 58.92187
 2018-Nov-23 14:34  m  01 05 23.764277 +12 29 58.74725
 2018-Nov-23 14:35  m  01 05 23.861169 +12 29 58.57271
 2018-Nov-23 14:36  m  01 05 23.958111 +12 29 58.39824
 2018-Nov-23 14:37  m  01 05 24.055104 +12 29 58.22384
 2018-Nov-23 14:38  m  01 05 24.152148 +12 29 58.04952
 2018-Nov-23 14:39  m  01 05 24.249242 +12 29 57.87527
 2018-Nov-23 14:40  m  01 05 24.346387 +12 29 57.70110
 2018-Nov-23 14:41  m  01 05 24.443582 +12 29 57.52701
 2018-Nov-23 14:42  m  01 05 24.540828 +12 29 57.35299
 2018-Nov-23 14:43  m  01 05 24.638124 +12 29 57.17905
 2018-Nov-23 14:44  m  01 05 24.735470 +12 29 57.00518
 2018-Nov-23 14:45  m  01 05 24.832866 +12 29 56.83140
 2018-Nov-23 14:46  m  01 05 24.930313 +12 29 56.65769
 2018-Nov-23 14:47  m  01 05 25.027809 +12 29 56.48407
 2018-Nov-23 14:48  m  01 05 25.125355 +12 29 56.31053
 2018-Nov-23 14:49  m  01 05 25.222950 +12 29 56.13707
 2018-Nov-23 14:50  m  01 05 25.320596 +12 29 55.96369
 2018-Nov-23 14:51  m  01 05 25.418290 +12 29 55.79039
 2018-Nov-23 14:52  m  01 05 25.516035 +12 29 55.61718
 2018-Nov-23 14:53  m  01 05 25.613828 +12 29 55.44406
 2018-Nov-23 14:54  m  01 05 25.711671 +12 29 55.27102
 2018-Nov-23 14:55  m  01 05 25.809563 +12 29 55.09806
 2018-Nov-23 14:56  m  01 05 25.907504 +12 29 54.92519
 2018-Nov-23 14:57  m  01 05 26.005493 +12 29 54.75241
 2018-Nov-23 14:58  m  01 05 26.103532 +12 29 54.57972
 2018-Nov-23 14:59  m  01 05 26.201619 +12 29 54.40711
 2018-Nov-23 15:00  m  01 05 26.299755 +12 29 54.23460
 2018-Nov-23 15:01  m  01 05 26.397940 +12 29 54.06218
 2018-Nov-23 15:02  m  01 05 26.496173 +12 29 53.88984
 2018-Nov-23 15:03  m  01 05 26.594454 +12 29 53.71760
 2018-Nov-23 15:04  m  01 05 26.692784 +12 29 53.54545
 2018-Nov-23 15:05  m  01 05 26.791161 +12 29 53.37339
 2018-Nov-23 15:06  m  01 05 26.889587 +12 29 53.20143
 2018-Nov-23 15:07  m  01 05 26.988060 +12 29 53.02956
 2018-Nov-23 15:08  m  01 05 27.086581 +12 29 52.85779
 2018-Nov-23 15:09  m  01 05 27.185150 +12 29 52.68611
 2018-Nov-23 15:10  m  01 05 27.283766 +12 29 52.51453
 2018-Nov-23 15:11  m  01 05 27.382429 +12 29 52.34304
 2018-Nov-23 15:12  m  01 05 27.481140 +12 29 52.17166
 2018-Nov-23 15:13  m  01 05 27.579899 +12 29 52.00037
 2018-Nov-23 15:14  m  01 05 27.678704 +12 29 51.82918
 2018-Nov-23 15:15  m  01 05 27.777556 +12 29 51.65809
 2018-Nov-23 15:16  m  01 05 27.876455 +12 29 51.48710
 2018-Nov-23 15:17  m  01 05 27.975400 +12 29 51.31621
 2018-Nov-23 15:18  m  01 05 28.074393 +12 29 51.14542
 2018-Nov-23 15:19 Am  01 05 28.173431 +12 29 50.97473
 2018-Nov-23 15:20 Am  01 05 28.272516 +12 29 50.80415
 2018-Nov-23 15:21 Am  01 05 28.371647 +12 29 50.63367
 2018-Nov-23 15:22 Am  01 05 28.470825 +12 29 50.46330
 2018-Nov-23 15:23 Am  01 05 28.570048 +12 29 50.29303
 2018-Nov-23 15:24 Am  01 05 28.669317 +12 29 50.12286
 2018-Nov-23 15:25 Am  01 05 28.768632 +12 29 49.95281
 2018-Nov-23 15:26 Am  01 05 28.867992 +12 29 49.78285
 2018-Nov-23 15:27 Am  01 05 28.967398 +12 29 49.61301
 2018-Nov-23 15:28 Am  01 05 29.066849 +12 29 49.44327
 2018-Nov-23 15:29 Am  01 05 29.166346 +12 29 49.27365
 2018-Nov-23 15:30 Am  01 05 29.265887 +12 29 49.10413
 2018-Nov-23 15:31 Am  01 05 29.365474 +12 29 48.93472
 2018-Nov-23 15:32 Am  01 05 29.465105 +12 29 48.76543
 2018-Nov-23 15:33 Am  01 05 29.564780 +12 29 48.59624
 2018-Nov-23 15:34 Am  01 05 29.664501 +12 29 48.42717
 2018-Nov-23 15:35 Am  01 05 29.764266 +12 29 48.25821
 2018-Nov-23 15:36 Am  01 05 29.864074 +12 29 48.08936
 2018-Nov-23 15:37 Am  01 05 29.963928 +12 29 47.92062
 2018-Nov-23 15:38 Am  01 05 30.063825 +12 29 47.75200
 2018-Nov-23 15:39 Am  01 05 30.163766 +12 29 47.58350
 2018-Nov-23 15:40 Am  01 05 30.263750 +12 29 47.41511
 2018-Nov-23 15:41 Am  01 05 30.363778 +12 29 47.24684
 2018-Nov-23 15:42 Am  01 05 30.463850 +12 29 47.07868
 2018-Nov-23 15:43 Am  01 05 30.563965 +12 29 46.91064
 2018-Nov-23 15:44 Am  01 05 30.664123 +12 29 46.74272
 2018-Nov-23 15:45 Nm  01 05 30.764324 +12 29 46.57492
 2018-Nov-23 15:46 Nm  01 05 30.864567 +12 29 46.40724
 2018-Nov-23 15:47 Nm  01 05 30.964854 +12 29 46.23968
 2018-Nov-23 15:48 Nm  01 05 31.065183 +12 29 46.07223
 2018-Nov-23 15:49 Nm  01 05 31.165554 +12 29 45.90491
 2018-Nov-23 15:50 Nm  01 05 31.265968 +12 29 45.73771
 2018-Nov-23 15:51 Nm  01 05 31.366424 +12 29 45.57064
 2018-Nov-23 15:52 Nm  01 05 31.466922 +12 29 45.40368
 2018-Nov-23 15:53 Nm  01 05 31.567461 +12 29 45.23685
 2018-Nov-23 15:54 Nm  01 05 31.668042 +12 29 45.07015
 2018-Nov-23 15:55 Nm  01 05 31.768665 +12 29 44.90357
 2018-Nov-23 15:56 Nm  01 05 31.869329 +12 29 44.73711
 2018-Nov-23 15:57 Nm  01 05 31.970034 +12 29 44.57078
 2018-Nov-23 15:58 Nm  01 05 32.070780 +12 29 44.40458
 2018-Nov-23 15:59 Nm  01 05 32.171567 +12 29 44.23850
 2018-Nov-23 16:00 Nm  01 05 32.272395 +12 29 44.07255
 2018-Nov-23 16:01 Nm  01 05 32.373264 +12 29 43.90673
 2018-Nov-23 16:02 Nm  01 05 32.474172 +12 29 43.74104
 2018-Nov-23 16:03 Nm  01 05 32.575121 +12 29 43.57547
 2018-Nov-23 16:04 Nm  01 05 32.676111 +12 29 43.41004
 2018-Nov-23 16:05 Nm  01 05 32.777140 +12 29 43.24474
 2018-Nov-23 16:06 Nm  01 05 32.878208 +12 29 43.07957
 2018-Nov-23 16:07 Nm  01 05 32.979317 +12 29 42.91452
 2018-Nov-23 16:08 Nm  01 05 33.080465 +12 29 42.74962
